NORAD_CAT_ID,OBJECT_NAME,OBJECT_TYPE,EPOCH,MEAN_MOTION,ECCENTRICITY,INCLINATION,RA_OF_ASC_NODE,ARG_OF_PERICENTER,MEAN_ANOMALY,BSTAR,MEAN_MOTION_DOT,MEAN_MOTION_DDOT,TLE_LINE0,TLE_LINE1,TLE_LINE2,SEMIMAJOR_AXIS,PERIOD,APOGEE,PERIGEE,DECAYED
51865.0,STARLINK-3503,PAYLOAD,2024-04-13 13:49:03,15.08835462,0.0001343,53.2178,249.6098,92.0649,268.0497,4.0975e-05,3.64e-06,0.0,0 STARLINK-3503,1 51865U 22022P   24104.57573889  .00000364  00000-0  40975-4 0  9998,2 51865  53.2178 249.6098 0001343  92.0649 268.0497 15.08835462118178,6917.894,95.438,540.688,538.83,0.0
51865.0,STARLINK-3503,PAYLOAD,2024-04-13 16:59:49,15.08838578,0.0001331,53.218,249.0145,88.482,271.6324,6.1194e-05,6.86e-06,0.0,0 STARLINK-3503,1 51865U 22022P   24104.70821676  .00000686  00000-0  61194-4 0  9996,2 51865  53.2180 249.0145 0001331  88.4820 271.6324 15.08838578118197,6917.885,95.438,540.671,538.829,0.0
51865.0,STARLINK-3503,PAYLOAD,2024-04-14 08:53:41,15.08828536,0.0001309,53.2178,246.0393,82.3768,277.7373,0.00016627,2.358e-05,0.0,0 STARLINK-3503,1 51865U 22022P   24105.37062284  .00002358  00000-0  16627-3 0  9990,2 51865  53.2178 246.0393 0001309  82.3768 277.7373 15.08828536118290,6917.915,95.438,540.686,538.875,0.0
51865.0,STARLINK-3503,PAYLOAD,2024-04-14 16:50:36,15.08844336,0.0001649,53.2185,244.5541,69.2802,290.8367,0.00011896,1.606e-05,0.0,0 STARLINK-3503,1 51865U 22022P   24105.70181655  .00001606  00000-0  11896-3 0  9999,2 51865  53.2185 244.5541 0001649  69.2802 290.8367 15.08844336118347,6917.867,95.437,540.873,538.591,0.0
51865.0,STARLINK-3503,PAYLOAD,2024-04-15 13:30:37,15.088475,0.0001498,53.2184,240.6881,70.704,289.4114,0.0001018,1.333e-05,0.0,0 STARLINK-3503,1 51865U 22022P   24106.56293416  .00001333  00000-0  10180-3 0  9995,2 51865  53.2184 240.6881 0001498  70.7040 289.4114 15.08847500118477,6917.857,95.437,540.759,538.686,0.0
51865.0,STARLINK-3503,PAYLOAD,2024-04-16 13:21:24,15.08848106,0.0001504,53.217,236.2258,102.1438,257.9723,3.8176e-05,3.2e-06,0.0,0 STARLINK-3503,1 51865U 22022P   24107.55653120  .00000320  00000-0  38176-4 0  9998,2 51865  53.2170 236.2258 0001504 102.1438 257.9723 15.08848106118626,6917.856,95.437,540.761,538.68,0.0
51865.0,STARLINK-3503,PAYLOAD,2024-04-16 14:56:47,15.08848733,0.0001199,53.2181,235.9264,103.0268,257.0858,-1.2717e-05,-4.9e-06,0.0,0 STARLINK-3503,1 51865U 22022P   24107.62277103 -.00000490  00000-0 -12717-4 0  9992,2 51865  53.2181 235.9264 0001199 103.0268 257.0858 15.08848733118639,6917.854,95.437,540.548,538.889,0.0
51865.0,STARLINK-3503,PAYLOAD,2024-04-17 13:12:13,15.08807894,0.0001448,53.2159,231.7657,60.9429,299.1708,-0.00026936,-4.568e-05,0.0,0 STARLINK-3503,1 51865U 22022P   24108.55016068 -.00004568  00000-0 -26936-3 0  9993,2 51865  53.2159 231.7657 0001448  60.9429 299.1708 15.08807894118770,6917.979,95.44,540.845,538.842,0.0
51865.0,STARLINK-3503,PAYLOAD,2024-04-17 14:47:37,15.08804574,0.0001523,53.216,231.4684,79.7047,280.4116,-0.00029919,-5.042e-05,0.0,0 STARLINK-3503,1 51865U 22022P   24108.61640386 -.00005042  00000-0 -29919-3 0  9998,2 51865  53.2160 231.4684 0001523  79.7047 280.4116 15.08804574118786,6917.989,95.44,540.907,538.8,0.0
51865.0,STARLINK-3503,PAYLOAD,2024-04-18 13:03:00,15.08827531,0.0001956,53.2172,227.3071,69.2969,290.8233,-2.5904e-05,-7e-06,0.0,0 STARLINK-3503,1 51865U 22022P   24109.54375459 -.00000700  00000-0 -25904-4 0  9994,2 51865  53.2172 227.3071 0001956  69.2969 290.8233 15.08827531118929,6917.919,95.438,541.137,538.43,0.0
51865.0,STARLINK-3503,PAYLOAD,2024-04-19 12:53:46,15.08832373,0.0001629,53.217,222.8425,90.2476,269.8703,0.00051798,7.964e-05,0.0,0 STARLINK-3503,1 51865U 22022P   24110.53734070  .00007964  00000-0  51798-3 0  9999,2 51865  53.2170 222.8425 0001629  90.2476 269.8703 15.08832373119079,6917.904,95.438,540.896,538.642,0.0
51865.0,STARLINK-3503,PAYLOAD,2024-04-19 14:29:09,15.08836217,0.0001658,53.2178,222.5445,92.1877,267.9305,0.00054662,8.421e-05,0.0,0 STARLINK-3503,1 51865U 22022P   24110.60357830  .00008421  00000-0  54662-3 0  9994,2 51865  53.2178 222.5445 0001658  92.1877 267.9305 15.08836217119083,6917.892,95.438,540.904,538.61,0.0
51865.0,STARLINK-3503,PAYLOAD,2024-04-20 12:44:32,15.08858444,0.0002108,53.2176,218.3846,125.6944,234.4244,0.00014171,1.969e-05,0.0,0 STARLINK-3503,1 51865U 22022P   24111.53092905  .00001969  00000-0  14171-3 0  9997,2 51865  53.2176 218.3846 0002108 125.6944 234.4244 15.08858444119220,6917.824,95.436,541.147,538.231,0.0
51865.0,STARLINK-3503,PAYLOAD,2024-04-20 14:19:55,15.08870568,0.0001367,53.2171,218.0871,100.0171,260.0975,0.00034266,5.174e-05,0.0,0 STARLINK-3503,1 51865U 22022P   24111.59716484  .00005174  00000-0  34266-3 0  9997,2 51865  53.2171 218.0871 0001367 100.0171 260.0975 15.08870568119233,6917.787,95.436,540.598,538.706,0.0
51865.0,STARLINK-3503,PAYLOAD,2024-04-21 14:10:43,15.08831357,0.0001489,53.2176,213.6245,89.2386,270.8777,-0.00027883,-4.722e-05,0.0,0 STARLINK-3503,1 51865U 22022P   24112.59078499 -.00004722  00000-0 -27883-3 0  9992,2 51865  53.2176 213.6245 0001489  89.2386 270.8777 15.08831357119383,6917.907,95.438,540.802,538.742,0.0
51865.0,STARLINK-3503,PAYLOAD,2024-04-21 15:46:06,15.08832522,0.000146,53.2176,213.3271,97.6224,262.4934,-0.00025716,-4.377e-05,0.0,0 STARLINK-3503,1 51865U 22022P   24112.65702401 -.00004377  00000-0 -25716-3 0  9995,2 51865  53.2176 213.3271 0001460  97.6224 262.4934 15.08832522119390,6917.903,95.438,540.778,538.758,0.0
51865.0,STARLINK-3503,PAYLOAD,2024-04-22 10:50:44,15.08837879,0.0001142,53.217,209.76,103.7938,256.3181,-0.00010804,-2.007e-05,0.0,0 STARLINK-3503,1 51865U 22022P   24113.45190530 -.00002007  00000-0 -10804-3 0  9998,2 51865  53.2170 209.7600 0001142 103.7938 256.3181 15.08837879119517,6917.887,95.438,540.542,538.962,0.0
51865.0,STARLINK-3503,PAYLOAD,2024-04-22 15:36:52,15.08858769,8.93e-05,53.2176,208.8672,86.3531,273.7563,0.00020565,2.988e-05,0.0,0 STARLINK-3503,1 51865U 22022P   24113.65061274  .00002988  00000-0  20565-3 0  9993,2 51865  53.2176 208.8672 0000893  86.3531 273.7563 15.08858769119540,6917.823,95.436,540.306,539.07,0.0
51865.0,STARLINK-3503,PAYLOAD,2024-04-23 12:16:54,15.08852125,0.0001218,53.2173,204.9997,95.6446,264.4685,0.00043053,6.573e-05,0.0,0 STARLINK-3503,1 51865U 22022P   24114.51174655  .00006573  00000-0  43053-3 0  9998,2 51865  53.2173 204.9997 0001218  95.6446 264.4685 15.08852125119670,6917.843,95.437,540.551,538.866,0.0
51865.0,STARLINK-3503,PAYLOAD,2024-04-24 12:07:41,15.08855439,0.0001274,53.217,200.5431,113.7972,246.3154,4.9586e-05,5.02e-06,0.0,0 STARLINK-3503,1 51865U 22022P   24115.50534028  .00000502  00000-0  49586-4 0  9996,2 51865  53.2170 200.5431 0001274 113.7972 246.3154 15.08855439119828,6917.833,95.437,540.58,538.817,0.0
51865.0,STARLINK-3503,PAYLOAD,2024-04-25 11:58:29,15.08843483,0.0001469,53.2164,196.0801,96.7053,263.4106,3.6225e-06,-2.3e-06,0.0,0 STARLINK-3503,1 51865U 22022P   24116.49895156 -.00000230  00000-0  36225-5 0  9993,2 51865  53.2164 196.0801 0001469  96.7053 263.4106 15.08843483119976,6917.87,95.437,540.751,538.719,0.0
51865.0,STARLINK-3503,PAYLOAD,2024-04-26 05:27:44,15.08833579,0.0001285,53.2156,192.8115,83.9614,276.1525,0.00017437,2.488e-05,0.0,0 STARLINK-3503,1 51865U 22022P   24117.22759553  .00002488  00000-0  17437-3 0  9993,2 51865  53.2156 192.8115 0001285  83.9614 276.1525 15.08833579120081,6917.9,95.438,540.654,538.876,0.0
51865.0,STARLINK-3503,PAYLOAD,2024-04-26 11:49:16,15.08845826,0.0001489,53.2166,191.6286,94.0654,266.0509,0.00016704,2.372e-05,0.0,0 STARLINK-3503,1 51865U 22022P   24117.49254964  .00002372  00000-0  16704-3 0  9996,2 51865  53.2166 191.6286 0001489  94.0654 266.0509 15.08845826120124,6917.863,95.437,540.758,538.698,0.0
51865.0,STARLINK-3503,PAYLOAD,2024-04-27 05:18:30,15.08841736,0.0001366,53.2147,188.3543,74.3241,285.7902,9.8717e-05,1.284e-05,0.0,0 STARLINK-3503,1 51865U 22022P   24118.22119130  .00001284  00000-0  98717-4 0  9999,2 51865  53.2147 188.3543 0001366  74.3241 285.7902 15.08841736120232,6917.875,95.437,540.685,538.795,0.0
51865.0,STARLINK-3503,PAYLOAD,2024-04-27 11:40:04,15.08830005,0.0001707,53.217,187.1685,80.4041,279.7144,0.00097242,0.00015218,0.0,0 STARLINK-3503,1 51865U 22022P   24118.48615829  .00015218  00000-0  97242-3 0  9996,2 51865  53.2170 187.1685 0001707  80.4041 279.7144 15.08830005120279,6917.911,95.438,540.957,538.595,0.0
51865.0,STARLINK-3503,PAYLOAD,2024-04-27 21:12:22,15.08837195,0.0001378,53.2146,185.3796,90.0566,270.0584,2.6187e-05,1.29e-06,0.0,0 STARLINK-3503,1 51865U 22022P   24118.88359163  .00000129  00000-0  26187-4 0  9992,2 51865  53.2146 185.3796 0001378  90.0566 270.0584 15.08837195120334,6917.889,95.438,540.707,538.801,0.0
51865.0,STARLINK-3503,PAYLOAD,2024-04-28 11:30:51,15.08822733,0.0001421,53.2156,182.7054,110.6192,249.4953,-0.00024383,-4.165e-05,0.0,0 STARLINK-3503,1 51865U 22022P   24119.47976215 -.00004165  00000-0 -24383-3 0  9992,2 51865  53.2156 182.7054 0001421 110.6192 249.4953 15.08822733120428,6917.933,95.439,540.781,538.815,0.0
51865.0,STARLINK-3503,PAYLOAD,2024-04-28 21:03:10,15.08829134,0.0001441,53.218,180.9206,102.2447,257.8706,-0.00012353,-2.253e-05,0.0,0 STARLINK-3503,1 51865U 22022P   24119.87720174 -.00002253  00000-0 -12353-3 0  9997,2 51865  53.2180 180.9206 0001441 102.2447 257.8706 15.08829134120483,6917.914,95.438,540.775,538.782,0.0
51865.0,STARLINK-3503,PAYLOAD,2024-04-29 03:24:42,15.0883625,0.0001605,53.218,179.7293,107.3883,252.7284,3.0714e-05,2.01e-06,0.0,0 STARLINK-3503,1 51865U 22022P   24120.14216285  .00000201  00000-0  30714-4 0  9993,2 51865  53.2180 179.7293 0001605 107.3883 252.7284 15.08836250120524,6917.892,95.438,540.867,538.647,0.0
51865.0,STARLINK-3503,PAYLOAD,2024-04-29 11:21:38,15.08843513,0.0001337,53.2158,178.243,108.2219,251.8919,0.00010571,1.395e-05,0.0,0 STARLINK-3503,1 51865U 22022P   24120.47335672  .00001395  00000-0  10571-3 0  9994,2 51865  53.2158 178.2430 0001337 108.2219 251.8919 15.08843513120571,6917.87,95.437,540.66,538.81,0.0
